COSMOS 2219             
1 22219U 92076A   26157.79217611 -.00000080  00000+0 -17357-4 0  9991
2 22219  71.0578 191.8031 0016120  61.1295 299.1443 14.14095586730974
SL-16 R/B               
1 22220U 92076B   26157.85374984 -.00000194  00000+0 -72693-4 0  9997
2 22220  71.0008   0.5502 0014408 312.2124  58.5731 14.16872419734466
COSMOS 2221             
1 22236U 92080A   26157.84203780  .00001478  00000+0  12771-3 0  9997
2 22236  82.5036 193.6760 0012640 250.4312 109.5545 14.96507463794120
SL-16 R/B               
1 22285U 92093B   26157.78337103 -.00000066  00000+0 -94343-5 0  9996
2 22285  71.0202 177.2320 0004525 202.6785 157.4139 14.15464998725769
COSMOS 2228             
1 22286U 92094A   26157.86475440  .00002600  00000+0  21998-3 0  9992
2 22286  82.5170 151.9303 0017924   7.7517 352.3979 14.97549576789400
SL-16 R/B               
1 22566U 93016B   26157.62097889  .00000008  00000+0  28809-4 0  9998
2 22566  71.0080  28.4009 0010901 198.9571 161.1148 14.15308578714751
COSMOS 2242             
1 22626U 93024A   26157.81950956  .00001726  00000+0  14792-3 0  9991
2 22626  82.5180 181.4619 0016377  11.7198 348.4402 14.96872747793723
SL-16 R/B               
1 22803U 93059B   26157.76169306  .00000113  00000+0  79483-4 0  9999
2 22803  70.9883 183.2895 0014962  72.1841 288.0914 14.17243789692154
ARIANE 40 R/B           
1 22830U 93061H   26157.94064304  .00000211  00000+0  93062-4 0  9992
2 22830  98.4821 225.0103 0011109  26.4411 333.7338 14.32903576706881
COSMOS 2278             
1 23087U 94023A   26157.77994011  .00000386  00000+0  22639-3 0  9998
2 23087  71.0540 348.7010 0010627 254.9650 105.0297 14.14391700657405
SL-16 R/B               
1 23088U 94023B   26157.64494799  .00000121  00000+0  87264-4 0  9996
2 23088  70.9996 244.0707 0003434 198.1009 161.9992 14.15018806658672
SL-16 R/B               
1 23343U 94074B   26157.82069493  .00000466  00000+0  68872-4 0  9991
2 23343  97.6995 184.9733 0005206 297.0070 236.1991 14.79493712700426
SL-16 R/B               
1 23405U 94077B   26157.73314538 -.00000297  00000+0 -12734-3 0  9995
2 23405  70.9807 165.1562 0002592 333.8707  26.2285 14.15574110628833
